{
  "norad_id": 51975,
  "name": "STARLINK-3674",
  "history": [
    {
      "epoch": "2026-03-28T20:48:04.396320Z",
      "apogee_km": 476.1085722324942,
      "perigee_km": 474.22692888018173,
      "latitude_deg": 1.2420600803587805e-06,
      "longitude_deg": 156.45907121292836,
      "height_km": 476.0528593279123,
      "semi_major_axis_km": 6853.304750556338,
      "eccentricity": 0.00013728,
      "inclination_deg": 53.1572,
      "raan_deg": 294.7584,
      "arg_perigee_deg": 89.2369,
      "mean_anomaly_deg": 270.8789,
      "mean_motion_rev_day": 15.30215848
    },
    {
      "epoch": "2026-03-28T23:56:10.595904Z",
      "apogee_km": 476.0983502579202,
      "perigee_km": 474.2191765595935,
      "latitude_deg": 1.8102888506216142e-05,
      "longitude_deg": 108.69769997345342,
      "height_km": 476.04266567215114,
      "semi_major_axis_km": 6853.295763408757,
      "eccentricity": 0.0001371,
      "inclination_deg": 53.1571,
      "raan_deg": 294.1516,
      "arg_perigee_deg": 89.1629,
      "mean_anomaly_deg": 270.9529,
      "mean_motion_rev_day": 15.30218858
    }
  ]
}